start=new Date('2022-08-01T00:00:00.000Z').valueOf();
sats=[{"MEAN_MOTION_DOT":"0.00001010","OBJECT_NAME":"STARLINK-3090","MEAN_ANOMALY":"101.3857","LAUNCH_DATE":"2021-09-14","BSTAR":"0.00009237900000","RA_OF_ASC_NODE":"15.5779","EPHEMERIS_TYPE":"0","MEAN_MOTION_DDOT":"0.0000000000000","MEAN_MOTION":"14.98341476","REV_AT_EPOCH":"4867","PERIOD":"96.106","TIME_SYSTEM":"UTC","NORAD_CAT_ID":"49132","SITE":"AFWTR","APOAPSIS":"574.302","ELEMENT_SET_NO":"999","PERIAPSIS":"569.743","COUNTRY_CODE":"US","RCS_SIZE":"LARGE","FILE":"3526169","TLE_LINE1":"1 49132U 21082C   22212.48549426  .00001010  00000-0  92379-4 0  9999","EPOCH":"2022-07-31T11:39:06.704064","GP_ID":"209265684","CLASSIFICATION_TYPE":"U","OBJECT_ID":"2021-082C","ECCENTRICITY":"0.00032800","SEMIMAJOR_AXIS":"6950.157","TLE_LINE2":"2 49132  69.9996  15.5779 0003280 258.6934 101.3857 14.98341476 48670","OBJECT_TYPE":"PAYLOAD","REF_FRAME":"TEME","MEAN_ELEMENT_THEORY":"SGP4","ARG_OF_PERICENTER":"258.6934","DECAY_DATE":null,"CENTER_NAME":"EARTH","INCLINATION":"69.9996"},{"GP_ID":"209296997","CLASSIFICATION_TYPE":"U","EPOCH":"2022-07-31T17:56:47.502528","OBJECT_ID":"2021-082D","ECCENTRICITY":"0.00031680","TLE_LINE2":"2 49133  70.0003  14.9294 0003168 251.8125 108.2690 14.98327917 48710","SEMIMAJOR_AXIS":"6950.199","OBJECT_TYPE":"PAYLOAD","MEAN_ELEMENT_THEORY":"SGP4","REF_FRAME":"TEME","ARG_OF_PERICENTER":"251.8125","DECAY_DATE":null,"INCLINATION":"70.0003","CENTER_NAME":"EARTH","MEAN_MOTION_DOT":"0.00001055","LAUNCH_DATE":"2021-09-14","BSTAR":"0.00009618100000","OBJECT_NAME":"STARLINK-3077","MEAN_ANOMALY":"108.2690","EPHEMERIS_TYPE":"0","RA_OF_ASC_NODE":"14.9294","MEAN_MOTION_DDOT":"0.0000000000000","MEAN_MOTION":"14.98327917","REV_AT_EPOCH":"4871","TIME_SYSTEM":"UTC","PERIOD":"96.107","SITE":"AFWTR","APOAPSIS":"574.266","NORAD_CAT_ID":"49133","ELEMENT_SET_NO":"999","PERIAPSIS":"569.863","FILE":"3526413","COUNTRY_CODE":"US","RCS_SIZE":"LARGE","TLE_LINE1":"1 49133U 21082D   22212.74777202  .00001055  00000-0  96181-4 0  9998"},{"MEAN_MOTION":"14.98329712","MEAN_MOTION_DDOT":"0.0000000000000","MEAN_MOTION_DOT":"-0.00000562","EPHEMERIS_TYPE":"0","RA_OF_ASC_NODE":"14.9416","OBJECT_NAME":"STARLINK-3078","MEAN_ANOMALY":"99.6836","LAUNCH_DATE":"2021-09-14","BSTAR":"-0.00003927600000","PERIAPSIS":"569.910","ELEMENT_SET_NO":"999","TLE_LINE1":"1 49134U 21082E   22212.74299958 -.00000562  00000-0 -39276-4 0  9992","RCS_SIZE":"LARGE","COUNTRY_CODE":"US","FILE":"3526413","REV_AT_EPOCH":"4991","NORAD_CAT_ID":"49134","APOAPSIS":"574.208","SITE":"AFWTR","PERIOD":"96.107","TIME_SYSTEM":"UTC","SEMIMAJOR_AXIS":"6950.194","TLE_LINE2":"2 49134  70.0011  14.9416 0003092 260.3974  99.6836 14.98329712 49912","ECCENTRICITY":"0.00030920","GP_ID":"209297247","CLASSIFICATION_TYPE":"U","EPOCH":"2022-07-31T17:49:55.163712","OBJECT_ID":"2021-082E","ARG_OF_PERICENTER":"260.3974","REF_FRAME":"TEME","MEAN_ELEMENT_THEORY":"SGP4","CENTER_NAME":"EARTH","INCLINATION":"70.0011","DECAY_DATE":null,"OBJECT_TYPE":"PAYLOAD"},{"ECCENTRICITY":"0.00032450","TLE_LINE2":"2 49135  69.9993 334.7499 0003245 259.8174 100.2618 14.96716699 49704","SEMIMAJOR_AXIS":"6955.186","GP_ID":"209297498","CLASSIFICATION_TYPE":"U","EPOCH":"2022-07-31T15:28:17.833440","OBJECT_ID":"2021-082F","MEAN_ELEMENT_THEORY":"SGP4","REF_FRAME":"TEME","ARG_OF_PERICENTER":"259.8174","DECAY_DATE":null,"INCLINATION":"69.9993","CENTER_NAME":"EARTH","OBJECT_TYPE":"PAYLOAD","MEAN_MOTION_DDOT":"0.0000000000000","MEAN_MOTION":"14.96716699","MEAN_MOTION_DOT":"0.00000816","BSTAR":"0.00007927100000","LAUNCH_DATE":"2021-09-14","MEAN_ANOMALY":"100.2618","OBJECT_NAME":"STARLINK-3073","EPHEMERIS_TYPE":"0","RA_OF_ASC_NODE":"334.7499","ELEMENT_SET_NO":"999","PERIAPSIS":"574.794","FILE":"3526413","COUNTRY_CODE":"US","RCS_SIZE":"LARGE","TLE_LINE1":"1 49135U 21082F   22212.64465085  .00000816  00000-0  79271-4 0  9997","REV_AT_EPOCH":"4970","TIME_SYSTEM":"UTC","PERIOD":"96.211","APOAPSIS":"579.308","SITE":"AFWTR","NORAD_CAT_ID":"49135"},{"FILE":"3526413","COUNTRY_CODE":"US","RCS_SIZE":"LARGE","TLE_LINE1":"1 49136U 21082G   22212.68130936 -.00000774  00000-0 -59664-4 0  9995","ELEMENT_SET_NO":"999","PERIAPSIS":"574.714","TIME_SYSTEM":"UTC","PERIOD":"96.211","APOAPSIS":"579.407","SITE":"AFWTR","NORAD_CAT_ID":"49136","REV_AT_EPOCH":"4921","MEAN_MOTION_DDOT":"0.0000000000000","MEAN_MOTION":"14.96713762","LAUNCH_DATE":"2021-09-14","BSTAR":"-0.00005966400000","MEAN_ANOMALY":"111.2650","OBJECT_NAME":"STARLINK-3084","EPHEMERIS_TYPE":"0","RA_OF_ASC_NODE":"354.9145","MEAN_MOTION_DOT":"-0.00000774","DECAY_DATE":null,"INCLINATION":"70.0009","CENTER_NAME":"EARTH","MEAN_ELEMENT_THEORY":"SGP4","REF_FRAME":"TEME","ARG_OF_PERICENTER":"248.8148","OBJECT_TYPE":"PAYLOAD","ECCENTRICITY":"0.00033740","SEMIMAJOR_AXIS":"6955.195","TLE_LINE2":"2 49136  70.0009 354.9145 0003374 248.8148 111.2650 14.96713762 49212","OBJECT_ID":"2021-082G","EPOCH":"2022-07-31T16:21:05.128704","GP_ID":"209298244","CLASSIFICATION_TYPE":"U"},{"OBJECT_ID":"2021-082H","GP_ID":"209296498","EPOCH":"2022-07-31T16:16:14.555136","CLASSIFICATION_TYPE":"U","ECCENTRICITY":"0.00033000","SEMIMAJOR_AXIS":"6955.158","TLE_LINE2":"2 49137  70.0014 354.9389 0003300 253.6056 106.4740 14.96725750 49205","OBJECT_TYPE":"PAYLOAD","DECAY_DATE":null,"INCLINATION":"70.0014","CENTER_NAME":"EARTH","MEAN_ELEMENT_THEORY":"SGP4","REF_FRAME":"TEME","ARG_OF_PERICENTER":"253.6056","BSTAR":"0.00008623200000","LAUNCH_DATE":"2021-09-14","MEAN_ANOMALY":"106.4740","OBJECT_NAME":"STARLINK-3055","RA_OF_ASC_NODE":"354.9389","EPHEMERIS_TYPE":"0","MEAN_MOTION_DOT":"0.00000896","MEAN_MOTION_DDOT":"0.0000000000000","MEAN_MOTION":"14.96725750","TIME_SYSTEM":"UTC","PERIOD":"96.210","APOAPSIS":"579.319","SITE":"AFWTR","NORAD_CAT_ID":"49137","REV_AT_EPOCH":"4920","FILE":"3526413","COUNTRY_CODE":"US","RCS_SIZE":"LARGE","TLE_LINE1":"1 49137U 21082H   22212.67794624  .00000896  00000-0  86232-4 0  9999","ELEMENT_SET_NO":"999","PERIAPSIS":"574.728"},{"MEAN_ELEMENT_THEORY":"SGP4","REF_FRAME":"TEME","ARG_OF_PERICENTER":"247.9592","DECAY_DATE":null,"INCLINATION":"70.0017","CENTER_NAME":"EARTH","OBJECT_TYPE":"PAYLOAD","ECCENTRICITY":"0.00030310","SEMIMAJOR_AXIS":"6950.190","TLE_LINE2":"2 49138  70.0017  14.9523 0003031 247.9592 112.1245 14.98330786 48716","EPOCH":"2022-07-31T17:43:03.255168","GP_ID":"209296748","CLASSIFICATION_TYPE":"U","OBJECT_ID":"2021-082J","ELEMENT_SET_NO":"999","PERIAPSIS":"569.949","FILE":"3526413","COUNTRY_CODE":"US","RCS_SIZE":"LARGE","TLE_LINE1":"1 49138U 21082J   22212.73823212 -.00000904  00000-0 -67976-4 0  9999","REV_AT_EPOCH":"4871","TIME_SYSTEM":"UTC","PERIOD":"96.107","APOAPSIS":"574.162","SITE":"AFWTR","NORAD_CAT_ID":"49138","MEAN_MOTION_DDOT":"0.0000000000000","MEAN_MOTION":"14.98330786","MEAN_MOTION_DOT":"-0.00000904","LAUNCH_DATE":"2021-09-14","BSTAR":"-0.00006797600000","OBJECT_NAME":"STARLINK-3058","MEAN_ANOMALY":"112.1245","RA_OF_ASC_NODE":"14.9523","EPHEMERIS_TYPE":"0"},{"MEAN_MOTION":"14.96714012","MEAN_MOTION_DDOT":"0.0000000000000","MEAN_MOTION_DOT":"0.00000861","EPHEMERIS_TYPE":"0","RA_OF_ASC_NODE":"334.7754","LAUNCH_DATE":"2021-09-14","BSTAR":"0.00008318800000","MEAN_ANOMALY":"92.7009","OBJECT_NAME":"STARLINK-3057","PERIAPSIS":"574.897","ELEMENT_SET_NO":"999","TLE_LINE1":"1 49139U 21082K   22212.63489316  .00000861  00000-0  83188-4 0  9995","FILE":"3526413","RCS_SIZE":"LARGE","COUNTRY_CODE":"US","REV_AT_EPOCH":"4969","SITE":"AFWTR","APOAPSIS":"579.222","NORAD_CAT_ID":"49139","TIME_SYSTEM":"UTC","PERIOD":"96.211","SEMIMAJOR_AXIS":"6955.195","TLE_LINE2":"2 49139  69.9998 334.7754 0003109 267.3793  92.7009 14.96714012 49691","ECCENTRICITY":"0.00031090","EPOCH":"2022-07-31T15:14:14.769024","GP_ID":"209297998","CLASSIFICATION_TYPE":"U","OBJECT_ID":"2021-082K","ARG_OF_PERICENTER":"267.3793","MEAN_ELEMENT_THEORY":"SGP4","REF_FRAME":"TEME","INCLINATION":"69.9998","CENTER_NAME":"EARTH","DECAY_DATE":null,"OBJECT_TYPE":"PAYLOAD"},{"OBJECT_TYPE":"PAYLOAD","REF_FRAME":"TEME","MEAN_ELEMENT_THEORY":"SGP4","ARG_OF_PERICENTER":"262.3501","DECAY_DATE":null,"CENTER_NAME":"EARTH","INCLINATION":"70.0001","CLASSIFICATION_TYPE":"U","GP_ID":"209297745","EPOCH":"2022-07-31T15:00:14.364864","OBJECT_ID":"2021-082L","ECCENTRICITY":"0.00032440","SEMIMAJOR_AXIS":"6955.182","TLE_LINE2":"2 49140  70.0001 334.8000 0003244 262.3501  97.7289 14.96718020 49696","REV_AT_EPOCH":"4969","PERIOD":"96.211","TIME_SYSTEM":"UTC","NORAD_CAT_ID":"49140","SITE":"AFWTR","APOAPSIS":"579.304","ELEMENT_SET_NO":"999","PERIAPSIS":"574.791","COUNTRY_CODE":"US","RCS_SIZE":"LARGE","FILE":"3526413","TLE_LINE1":"1 49140U 21082L   22212.62516626 -.00000797  00000-0 -61586-4 0  9999","MEAN_MOTION_DOT":"-0.00000797","MEAN_ANOMALY":"97.7289","OBJECT_NAME":"STARLINK-3118","LAUNCH_DATE":"2021-09-14","BSTAR":"-0.00006158600000","EPHEMERIS_TYPE":"0","RA_OF_ASC_NODE":"334.8000","MEAN_MOTION_DDOT":"0.0000000000000","MEAN_MOTION":"14.96718020"},{"MEAN_MOTION_DOT":"0.00001113","OBJECT_NAME":"STARLINK-3093","MEAN_ANOMALY":"109.1967","BSTAR":"0.00010107000000","LAUNCH_DATE":"2021-09-14","EPHEMERIS_TYPE":"0","RA_OF_ASC_NODE":"14.9526","MEAN_MOTION_DDOT":"0.0000000000000","MEAN_MOTION":"14.98339110","REV_AT_EPOCH":"4991","PERIOD":"96.106","TIME_SYSTEM":"UTC","NORAD_CAT_ID":"49141","SITE":"AFWTR","APOAPSIS":"574.275","ELEMENT_SET_NO":"999","PERIAPSIS":"569.784","COUNTRY_CODE":"US","RCS_SIZE":"LARGE","FILE":"3526413","TLE_LINE1":"1 49141U 21082M   22212.73346266  .00001113  00000-0  10107-3 0  9996","GP_ID":"209296998","EPOCH":"2022-07-31T17:36:11.173824","CLASSIFICATION_TYPE":"U","OBJECT_ID":"2021-082M","ECCENTRICITY":"0.00032310","TLE_LINE2":"2 49141  69.9998  14.9526 0003231 250.8843 109.1967 14.98339110 49912","SEMIMAJOR_AXIS":"6950.165","OBJECT_TYPE":"PAYLOAD","REF_FRAME":"TEME","MEAN_ELEMENT_THEORY":"SGP4","ARG_OF_PERICENTER":"250.8843","DECAY_DATE":null,"CENTER_NAME":"EARTH","INCLINATION":"69.9998"}];
